OBJECT_NAME,OBJECT_ID,EPOCH,MEAN_MOTION,ECCENTRICITY,INCLINATION,RA_OF_ASC_NODE,ARG_OF_PERICENTER,MEAN_ANOMALY,EPHEMERIS_TYPE,CLASSIFICATION_TYPE,NORAD_CAT_ID,ELEMENT_SET_NO,REV_AT_EPOCH,BSTAR,MEAN_MOTION_DOT,MEAN_MOTION_DDOT
STARLINK-32891,2025-027W,2026-06-09T04:36:52.617888,15.27659099,.0001134,42.9987,332.3537,344.2952,15.7864,0,U,62927,999,7565,.41102E-2,.114893E-2,0
KINEIS-2C,2025-028B,2026-06-09T02:28:32.996352,14.73329998,.00020323,98.1201,214.4899,302.9300,57.1712,0,U,62929,999,7142,.2168031E-3,.1352E-4,0
KINEIS-2D,2025-028C,2026-06-09T09:21:43.534080,14.75661080,.0002402,97.9288,212.9864,202.6170,157.4934,0,U,62930,999,7156,.23292E-3,.1541E-4,0
KINEIS-2E,2025-028D,2026-06-09T08:47:46.284288,14.76991775,.000157,97.8956,212.1664,118.1223,242.0146,0,U,62931,999,7162,.20179E-3,.1372E-4,0
KINEIS-2A,2025-028E,2026-06-09T10:06:04.127040,14.73361932,.0004707,98.1303,215.7854,174.3125,185.8137,0,U,62932,999,7146,.19311E-3,.1199E-4,0
KINEIS-2B,2025-028G,2026-06-09T11:11:13.148160,14.73364785,.0004076,97.9671,213.4683,155.6453,204.4949,0,U,62934,999,7152,.20346E-3,.1268E-4,0
STARLINK-32728,2025-029A,2026-06-09T12:00:02.998944,15.34370077,.0001175,53.1596,163.4694,69.6040,159.1892,0,U,62948,999,590,.12882E-2,.43357E-3,0
STARLINK-32857,2025-029B,2026-06-09T08:07:55.680960,15.34377025,.000184,53.1603,163.6299,96.2387,263.8825,0,U,62949,999,7543,.85862E-3,.28724E-3,0
STARLINK-32850,2025-029C,2026-06-09T07:54:42.657696,15.31713845,.000105,53.1582,166.4061,86.7411,273.3710,0,U,62950,999,7536,.5527E-3,.16832E-3,0
STARLINK-32875,2025-029D,2026-06-09T06:31:04.268352,15.34402646,.0001373,53.1599,163.9194,83.0016,277.1143,0,U,62951,999,7539,.52708E-3,.17475E-3,0
STARLINK-32865,2025-029E,2026-06-09T07:47:59.536032,15.31713733,.0001319,53.1588,166.3770,88.7882,271.3270,0,U,62952,999,7536,.25762E-3,.7641E-4,0
STARLINK-32884,2025-029F,2026-06-09T06:49:14.960352,15.34409135,.0001112,53.1595,164.0001,86.2649,273.8481,0,U,62953,999,7539,.7235E-3,.24154E-3,0
STARLINK-32874,2025-029G,2026-06-09T06:37:07.778208,15.34407842,.0001264,53.1598,163.9415,94.7919,265.3228,0,U,62954,999,7539,.56256E-3,.18683E-3,0
STARLINK-32880,2025-029H,2026-06-09T07:34:33.436128,15.31716295,.0001079,53.1582,166.3198,105.5812,254.5309,0,U,62955,999,7536,.49246E-3,.14955E-3,0
STARLINK-32815,2025-029J,2026-06-09T07:16:31.183680,15.34405599,.0001694,53.1590,164.1081,50.1441,309.9711,0,U,62956,999,7539,.45933E-3,.15177E-3,0
STARLINK-32879,2025-029K,2026-06-09T06:47:38.391072,15.31712102,.0001252,53.1599,166.8279,78.5018,281.6124,0,U,62957,999,7534,.74851E-3,.22942E-3,0
STARLINK-32885,2025-029L,2026-06-09T06:58:20.335296,15.34411027,.0001424,53.1607,164.0362,90.3082,269.8084,0,U,62958,999,7538,.60691E-3,.20191E-3,0
STARLINK-32896,2025-029M,2026-06-09T07:57:31.010688,15.30198747,.0001392,53.1585,167.1253,78.2292,281.8865,0,U,62959,999,7534,.37619E-3,.10798E-3,0
STARLINK-32877,2025-029N,2026-06-09T04:40:17.201856,15.30208152,.0001155,53.1571,167.6916,89.0143,271.0990,0,U,62960,999,7530,.70445E-3,.20568E-3,0
STARLINK-32889,2025-029P,2026-06-09T07:52:57.761184,15.30203179,.0001166,53.1582,167.1076,89.6529,270.4605,0,U,62961,999,7534,.42156E-3,.12148E-3,0
STARLINK-32858,2025-029Q,2026-06-09T08:01:55.420608,15.30185558,.0001404,53.1596,166.4355,85.4847,274.6314,0,U,62962,999,7533,.28279E-3,.8022E-4,0
STARLINK-32882,2025-029R,2026-06-09T06:40:09.307200,15.34395616,.0001382,53.1602,163.9559,89.7525,270.3636,0,U,62963,999,7538,.24202E-3,.7808E-4,0
STARLINK-32887,2025-029S,2026-06-09T04:27:06.170112,15.34405160,.00007756,53.1598,164.7985,79.3881,280.7209,0,U,62964,999,7536,.65071347E-3,.21676E-3,0
STARLINK-32836,2025-029T,2026-06-09T07:55:54.182208,15.34405767,.0000932,53.1603,164.2817,58.7562,301.3532,0,U,62965,999,7538,.57689E-3,.19168E-3,0
STARLINK-32888,2025-029U,2026-06-09T07:43:50.602944,15.30230628,.0001401,53.1574,167.0762,77.4067,282.7090,0,U,62966,999,7534,.49634E-3,.14383E-3,0
STARLINK-32897,2025-029V,2026-06-09T07:56:36.710016,15.34396504,.0001187,53.1590,165.6991,97.2826,262.8312,0,U,62967,999,7536,.52982E-3,.17565E-3,0
STARLINK-32863,2025-029W,2026-06-09T08:01:25.872672,15.31720306,.0001268,53.1590,166.4356,91.7599,268.3548,0,U,62968,999,7449,.36575E-3,.11008E-3,0
STARLINK-32894,2025-029X,2026-06-09T06:47:36.397824,15.30211206,.000131,53.1602,166.8191,89.4428,270.6723,0,U,62969,999,7534,.36232E-3,.1039E-3,0
STARLINK-32826,2025-029Y,2026-06-09T08:12:33.520896,15.30219293,.0001275,53.1597,166.4766,77.8075,282.3068,0,U,62970,999,7535,.34246E-3,.9803E-4,0
HULIANWANG DIGUI-11,2025-030A,2026-06-09T11:48:17.828064,13.29322142,.0001255,50.0010,263.4242,152.0889,208.0051,0,U,62971,999,6483,.51631E-4,-.1E-5,0
