STARLINK-32891          
1 62927U 25027W   26160.19227567  .00114893  00000+0  41102-2 0  9991
2 62927  42.9987 332.3537 0001134 344.2952  15.7864 15.27659099 75658
KINEIS-2C               
1 62929U 25028B   26160.10315968  .00001352  00000+0  21680-3 0  9993
2 62929  98.1201 214.4899 0002032 302.9300  57.1712 14.73329998 71424
KINEIS-2D               
1 62930U 25028C   26160.39008720  .00001541  00000+0  23292-3 0  9992
2 62930  97.9288 212.9864 0002402 202.6170 157.4934 14.75661080 71563
KINEIS-2E               
1 62931U 25028D   26160.36650792  .00001372  00000+0  20179-3 0  9995
2 62931  97.8956 212.1664 0001570 118.1223 242.0146 14.76991775 71621
KINEIS-2A               
1 62932U 25028E   26160.42088110  .00001199  00000+0  19311-3 0  9995
2 62932  98.1303 215.7854 0004707 174.3125 185.8137 14.73361932 71461
KINEIS-2B               
1 62934U 25028G   26160.46612440  .00001268  00000+0  20346-3 0  9997
2 62934  97.9671 213.4683 0004076 155.6453 204.4949 14.73364785 71523
STARLINK-32728          
1 62948U 25029A   26160.50003471  .00043357  00000+0  12882-2 0  9996
2 62948  53.1596 163.4694 0001175  69.6040 159.1892 15.34370077  5908
STARLINK-32857          
1 62949U 25029B   26160.33883890  .00028724  00000+0  85862-3 0  9999
2 62949  53.1603 163.6299 0001840  96.2387 263.8825 15.34377025 75434
STARLINK-32850          
1 62950U 25029C   26160.32966039  .00016832  00000+0  55270-3 0  9994
2 62950  53.1582 166.4061 0001050  86.7411 273.3710 15.31713845 75367
STARLINK-32875          
1 62951U 25029D   26160.27157718  .00017475  00000+0  52708-3 0  9992
2 62951  53.1599 163.9194 0001373  83.0016 277.1143 15.34402646 75396
STARLINK-32865          
1 62952U 25029E   26160.32499463  .00007641  00000+0  25762-3 0  9999
2 62952  53.1588 166.3770 0001319  88.7882 271.3270 15.31713733 75368
STARLINK-32884          
1 62953U 25029F   26160.28420093  .00024154  00000+0  72350-3 0  9991
2 62953  53.1595 164.0001 0001112  86.2649 273.8481 15.34409135 75399
STARLINK-32874          
1 62954U 25029G   26160.27578447  .00018683  00000+0  56256-3 0  9995
2 62954  53.1598 163.9415 0001264  94.7919 265.3228 15.34407842 75390
STARLINK-32880          
1 62955U 25029H   26160.31566477  .00014955  00000+0  49246-3 0  9990
2 62955  53.1582 166.3198 0001079 105.5812 254.5309 15.31716295 75365
STARLINK-32815          
1 62956U 25029J   26160.30313870  .00015177  00000+0  45933-3 0  9993
2 62956  53.1590 164.1081 0001694  50.1441 309.9711 15.34405599 75398
STARLINK-32879          
1 62957U 25029K   26160.28308323  .00022942  00000+0  74851-3 0  9997
2 62957  53.1599 166.8279 0001252  78.5018 281.6124 15.31712102 75347
STARLINK-32885          
1 62958U 25029L   26160.29051314  .00020191  00000+0  60691-3 0  9995
2 62958  53.1607 164.0362 0001424  90.3082 269.8084 15.34411027 75387
STARLINK-32896          
1 62959U 25029M   26160.33160892  .00010798  00000+0  37619-3 0  9999
2 62959  53.1585 167.1253 0001392  78.2292 281.8865 15.30198747 75342
STARLINK-32877          
1 62960U 25029N   26160.19464354  .00020568  00000+0  70445-3 0  9995
2 62960  53.1571 167.6916 0001155  89.0143 271.0990 15.30208152 75300
STARLINK-32889          
1 62961U 25029P   26160.32844631  .00012148  00000+0  42156-3 0  9994
2 62961  53.1582 167.1076 0001166  89.6529 270.4605 15.30203179 75345
STARLINK-32858          
1 62962U 25029Q   26160.33466922  .00008022  00000+0  28279-3 0  9995
2 62962  53.1596 166.4355 0001404  85.4847 274.6314 15.30185558 75337
STARLINK-32882          
1 62963U 25029R   26160.27788550  .00007808  00000+0  24202-3 0  9996
2 62963  53.1602 163.9559 0001382  89.7525 270.3636 15.34395616 75386
STARLINK-32887          
1 62964U 25029S   26160.18548808  .00021676  00000+0  65071-3 0  9995
2 62964  53.1598 164.7985 0000775  79.3881 280.7209 15.34405160 75363
STARLINK-32836          
1 62965U 25029T   26160.33048822  .00019168  00000+0  57689-3 0  9993
2 62965  53.1603 164.2817 0000932  58.7562 301.3532 15.34405767 75386
STARLINK-32888          
1 62966U 25029U   26160.32211346  .00014383  00000+0  49634-3 0  9991
2 62966  53.1574 167.0762 0001401  77.4067 282.7090 15.30230628 75349
STARLINK-32897          
1 62967U 25029V   26160.33098044  .00017565  00000+0  52982-3 0  9996
2 62967  53.1590 165.6991 0001187  97.2826 262.8312 15.34396504 75368
STARLINK-32863          
1 62968U 25029W   26160.33432723  .00011008  00000+0  36575-3 0  9999
2 62968  53.1590 166.4356 0001268  91.7599 268.3548 15.31720306 74492
STARLINK-32894          
1 62969U 25029X   26160.28306016  .00010390  00000+0  36232-3 0  9992
2 62969  53.1602 166.8191 0001310  89.4428 270.6723 15.30211206 75340
STARLINK-32826          
1 62970U 25029Y   26160.34205464  .00009803  00000+0  34246-3 0  9996
2 62970  53.1597 166.4766 0001275  77.8075 282.3068 15.30219293 75355
HULIANWANG DIGUI-11     
1 62971U 25030A   26160.49187301 -.00000100  00000+0  51631-4 0  9994
2 62971  50.0010 263.4242 0001255 152.0889 208.0051 13.29322142 64838
